[{"OBJECT_NAME":"STARLINK-4740","OBJECT_ID":"2022-114BF","EPOCH":"2026-03-09T20:40:24.794112","MEAN_MOTION":15.08833215,"ECCENTRICITY":0.00013144,"INCLINATION":53.218,"RA_OF_ASC_NODE":262.9725,"ARG_OF_PERICENTER":93.832,"MEAN_ANOMALY":266.2822,"EPHEMERIS_TYPE":0,"CLASSIFICATION_TYPE":"U","NORAD_CAT_ID":53871,"ELEMENT_SET_NO":999,"REV_AT_EPOCH":19342,"BSTAR":-7.2341243e-5,"MEAN_MOTION_DOT":-1.439e-5,"MEAN_MOTION_DDOT":0},{"OBJECT_NAME":"KUIPER-00203","OBJECT_ID":"2026-030K","EPOCH":"2026-03-09T22:00:01.999584","MEAN_MOTION":15.12119903,"ECCENTRICITY":0.00114753,"INCLINATION":51.8873,"RA_OF_ASC_NODE":219.0557,"ARG_OF_PERICENTER":61.3884,"MEAN_ANOMALY":261.5536,"EPHEMERIS_TYPE":0,"CLASSIFICATION_TYPE":"U","NORAD_CAT_ID":67773,"ELEMENT_SET_NO":999,"REV_AT_EPOCH":368,"BSTAR":-0.068919543,"MEAN_MOTION_DOT":-0.01112832,"MEAN_MOTION_DDOT":0}]
